COSMOS 1892             
1 18421U 87088A   20208.58171242  .00000144  00000-0  55875-5 0  9993
2 18421  82.4984 234.8149 0013452 292.5516  67.4293 15.17179150790485
SL-14 R/B               
1 18749U 88001B   20208.60618963  .00000059  00000-0  43200-5 0  9995
2 18749  82.5161 320.9483 0019153 164.7167 206.3211 14.83222710737679
COSMOS 1933             
1 18958U 88020A   20208.38857397 -.00000123  00000-0 -11101-4 0  9997
2 18958  82.5289  88.0029 0012295  27.3536 332.8335 15.03740079762108
SL-3 R/B                
1 19046U 88032B   20208.54817198  .00000596  00000-0  48282-4 0  9994
2 19046  97.3991 227.8800 0037950  73.0338 287.5041 15.02718004742834
SL-16 R/B               
1 19120U 88039B   20208.37452716 -.00000095  00000-0 -22359-4 0  9999
2 19120  71.0140  86.2834 0024040 249.4448 110.4097 14.19208251667176
COSMOS 1953             
1 19210U 88050A   20208.51571733  .00000041  00000-0  76488-6 0  9992
2 19210  82.5155  11.9080 0013001 354.5053   5.6030 15.05990681727543
SL-8 R/B                
1 19257U 88053B   20208.55881042  .00000018  00000-0  14741-4 0  9993
2 19257  74.0495 289.0813 0021549 259.5595 200.2916 14.37473423681628
COSMOS 1975             
1 19573U 88093A   20208.58571307 -.00000046  00000-0 -52913-5 0  9998
2 19573  82.5211 326.2727 0015154  36.1054 324.1193 15.04899690709392
SL-14 R/B               
1 19574U 88093B   20208.36778903  .00000066  00000-0  51573-5 0  9997
2 19574  82.5331 163.6610 0020984 337.7660 186.0082 14.83333127696638
SL-16 R/B               
1 19650U 88102B   20208.55567150 -.00000213  00000-0 -84012-4 0  9993
2 19650  71.0005 147.6849 0016599 257.2474 102.6794 14.15792338636418
INTERCOSMOS 24          
1 20261U 89080A   20208.52634251  .00000066  00000-0  15433-4 0  9998
2 20261  82.6062 354.9941 1202761 357.7597   1.8370 12.56123137408905
SL-14 R/B               
1 20262U 89080C   20208.59032184  .00000043  00000-0  76690-5 0  9991
2 20262  82.5919  48.8521 1236872 187.8575 170.1425 12.48942659403878
DELTA 2 R/B(1)          
1 20303U 89085B   20208.48607639  .00001304  00000-0  43656-4 0  9999
2 20303  35.6274 125.2409 0094545 163.9186 196.4574 15.27457127674038
DELTA 1 R/B             
1 20323U 89089B   20208.39160402  .00000010  00000-0  11374-4 0  9992
2 20323  97.0953 347.9936 0073256 108.1990 252.7199 14.48353070598504
ARIANE 40 R/B           
1 20443U 90005H   20208.40641247 -.00000007  00000-0  12521-4 0  9990
2 20443  98.5734 270.1621 0009650 221.9818 138.0630 14.38093689597712
DELTA 2 R/B(1)          
1 20453U 90008B   20208.60156761  .00000271  00000-0  17621-4 0  9996
2 20453  35.6272  25.4571 0281536 271.7228  85.1263 14.85620047617027
COSMOS 2058             
1 20465U 90010A   20208.59172989  .00000078  00000-0  42645-5 0  9990
2 20465  82.4875 235.6812 0016972  71.3378 288.9685 14.98023761634183
SL-14 R/B               
1 20466U 90010B   20208.58580550  .00000053  00000-0  37311-5 0  9994
2 20466  82.5021  30.1505 0019821 205.1280 154.8971 14.81388634624521
SL-14 R/B               
1 20511U 90018B   20208.47152588  .00000058  00000-0  45516-5 0  9998
2 20511  82.5248 336.8092 0017261 355.1894  70.5001 14.80044347639986
HST                     
1 20580U 90037B   20208.31865634  .00000356  00000-0  10660-4 0  9993
2 20580  28.4703  62.6031 0002766 147.6704  15.4910 15.09409193461933
SL-16 R/B               
1 20625U 90046B   20208.53705309  .00000263  00000-0  16141-3 0  9995
2 20625  70.9995 286.1641 0014570 190.7959 169.2852 14.14657508558395
COSMOS 2084             
1 20663U 90055A   20208.59181277 -.00000076  00000-0  10570-4 0  9999
2 20663  62.7954  37.5103 0028776 279.9252  79.8594 14.92098384629194
SL-6 R/B(2)             
1 20666U 90055D   20208.57074953 -.00000110  00000-0  76940-5 0  9995
2 20666  62.7870 313.9160 0050241 349.8297  10.1775 14.92348473631139
SL-8 R/B                
1 20775U 90078B   20208.44868449  .00001664  00000-0  77745-4 0  9995
2 20775  82.9264 194.4757 0574921  73.9509 292.4188 14.34443262511332
SL-8 R/B                
1 21088U 91006B   20208.56457359 -.00000019  00000-0 -34682-4 0  9990
2 21088  82.9410 256.1353 0023032  25.2093 128.5705 13.77149019481598
OKEAN-3                 
1 21397U 91039A   20208.52261206  .00000203  00000-0  16967-4 0  9998
2 21397  82.5232 139.5657 0019009  42.7061 317.5632 14.92940997558099
COSMOS 2151             
1 21422U 91042A   20208.55422299  .00000112  00000-0  83832-5 0  9990
2 21422  82.4989 245.7150 0015791 101.5396 258.7598 14.92142317556717
SL-14 R/B               
1 21423U 91042B   20208.61392607  .00000061  00000-0  49421-5 0  9996
2 21423  82.4957 340.3008 0018821 128.0468 232.2447 14.79794863549455
ERS-1                   
1 21574U 91050A   20208.52837358  .00000021  00000-0  21599-4 0  9990
2 21574  98.5996 161.9056 0033083 168.8778 191.3147 14.37750090520736
ARIANE 40 R/B           
1 21610U 91050F   20208.42325037 -.00000016  00000-0  85916-5 0  9995
2 21610  98.4633 277.2668 0004188 130.5427 240.6952 14.40909126523594
INTERCOSMOS 25          
1 21819U 91086A   20208.51631683 -.00000159  00000-0 -36198-4 0  9998
2 21819  82.5919 102.9487 1516733 188.7362 168.4282 12.05147887248995
SL-8 R/B                
1 21876U 92008B   20208.50831800 -.00000001  00000-0 -16646-4 0  9990
2 21876  82.9276 353.3899 0036094 104.4644 320.5054 13.75657161427470
SL-8 R/B                
1 21938U 92020B   20208.61374104 -.00000059  00000-0 -76454-4 0  9990
2 21938  82.9282 237.4861 0027817 263.9572 207.7033 13.75283683419053
COSMOS 2219             
1 22219U 92076A   20208.55983347  .00000306  00000-0  18668-3 0  9997
2 22219  71.0617 346.0163 0016525  95.3969 264.9039 14.13647608428347
SL-16 R/B               
1 22220U 92076B   20208.43259889  .00000094  00000-0  71371-4 0  9998
2 22220  70.9991 189.5295 0013798 333.8686 190.0604 14.16459724431190
COSMOS 2221             
1 22236U 92080A   20208.56314245  .00000120  00000-0  10413-4 0  9992
2 22236  82.5066  66.7011 0016374 186.7775 173.3223 14.87934943475095
SL-16 R/B               
1 22285U 92093B   20208.60455299 -.00000293  00000-0 -12674-3 0  9993
2 22285  71.0225 350.3802 0005347 220.8259 139.2464 14.15043886422878
COSMOS 2228             
1 22286U 92094A   20208.57683327  .00000108  00000-0  90013-5 0  9994
2 22286  82.5195  22.9659 0019975 314.2952  45.6626 14.88152554470263
SL-16 R/B               
1 22566U 93016B   20208.42111107 -.00000266  00000-0 -11301-3 0  9994
2 22566  71.0050 203.9541 0011622 217.0594 142.9727 14.14964719411846
COSMOS 2242             
1 22626U 93024A   20208.55837546  .00000111  00000-0  93481-5 0  9994
2 22626  82.5203  51.1273 0017816 314.8399  45.1370 14.88008672474671
SL-16 R/B               
1 22803U 93059B   20208.58613188  .00000150  00000-0  98694-4 0  9999
2 22803  70.9904  16.7969 0015132  97.4282 262.8561 14.16823120388847
ARIANE 40 R/B           
1 22830U 93061H   20208.58634856 -.00000024  00000-0  80987-5 0  9995
2 22830  98.7621 258.1386 0010522 201.7927 158.2809 14.31453125400423
COSMOS 2278             
1 23087U 94023A   20208.58651775  .00000238  00000-0  15045-3 0  9995
2 23087  71.0532 145.8603 0010610 278.7945  81.1975 14.13803437354723
SL-16 R/B               
1 23088U 94023B   20208.57399785 -.00000215  00000-0 -86916-4 0  9998
2 23088  70.9981  59.0120 0003958 209.8891 150.2006 14.14685790355840
SL-16 R/B               
1 23343U 94074B   20208.61550576 -.00000018  00000-0  47560-5 0  9993
2 23343  97.9962 261.2641 0007578  34.8588  83.1680 14.76830313384191
SL-16 R/B               
1 23405U 94077B   20208.57256860  .00000256  00000-0  15621-3 0  9993
2 23405  70.9843 348.2095 0002060 349.7807  10.3273 14.15220123325898
ERS-2                   
1 23560U 95021A   20208.44835878  .00000459  00000-0  23204-4 0  9995
2 23560  98.5457   7.2926 0004350  53.8392 306.3243 15.23223642348055
ARIANE 40+ R/B          
1 23561U 95021B   20208.57660501 -.00000004  00000-0  13667-4 0  9998
2 23561  98.7213 248.3635 0007842 132.3364  21.7953 14.37976356324190
SL-16 R/B               
1 23705U 95058B   20208.32320324 -.00000246  00000-0 -10201-3 0  9996
2 23705  71.0209 167.3997 0012466 356.9119   3.1925 14.15137733277475
SL-16 R/B               
1 24298U 96051B   20208.39361304 -.00000107  00000-0 -31549-4 0  9993
2 24298  70.8412 188.4410 0018054 287.6403  72.2746 14.12500721231853
ORBVIEW 2 (SEASTAR)     
1 24883U 97037A   20208.55666764  .00000031  00000-0  27383-4 0  9999
2 24883  98.6146 321.6532 0002322  19.9577 340.1697 14.33562890214312
SL-16 R/B               
1 25400U 98043G   20208.53061185 -.00000016  00000-0  11806-4 0  9994
2 25400  98.6078 143.7410 0009147 216.2159 143.8402 14.25458137146584
SL-16 R/B               
1 25407U 98045B   20208.33980977 -.00000250  00000-0 -10298-3 0  9994
2 25407  71.0109 175.8866 0010170 275.2855  84.7108 14.15803618136580
ISS (ZARYA)             
1 25544U 98067A   20208.14253472  .00001973  00000-0  43199-4 0  9990
2 25544  51.6435 155.6567 0001349 152.9260  53.0713 15.49510659238055
SL-8 R/B                
1 25723U 99022C   20208.22902769  .00018333  00000-0  12267-3 0  9999
2 25723  48.4083 151.0633 0004756 179.4623 180.6336 15.75237938183774
CZ-4B R/B               
1 25732U 99025C   20208.59037656 -.00000036  00000-0  45133-5 0  9998
2 25732  98.9419 237.5920 0038405  98.8728  52.7066 14.17679172 97367
OKEAN-O                 
1 25860U 99039A   20208.54139327  .00000012  00000-0  94084-5 0  9990
2 25860  98.2125 228.2179 0001910  94.7817 265.3610 14.76669785131285
SL-16 R/B               
1 25861U 99039B   20208.59240139 -.00000007  00000-0  65776-5 0  9991
2 25861  98.2078 211.5201 0016438  36.2685  76.6232 14.78584412133403
DELTA 2 R/B             
1 25876U 99041E   20208.57710408 -.00000126  00000-0  20826-4 0  9997
2 25876  51.7625 155.8938 0531679  98.2144 267.9415 14.04435863 74120
